{"type": "FeatureCollection", "features": [ {"type": "Feature", "properties": {"norad_id": 29853, "name": "FENGYUN 1C DEB", "group": "fengyun-1c-debris", "lat": 81.50336273333103, "lon": 16.008509028014824, "alt_km": 1014.9912891356644, "timestamp": "2025-12-04T13:52:00.714454+00:00", "meta": {"OBJECT_NAME": "FENGYUN 1C DEB", "OBJECT_ID": "1999-025EX", "EPOCH": "2025-12-04T06:32:12.549408", "MEAN_MOTION": 13.93741438, "ECCENTRICITY": 0.01610162, "INCLINATION": 98.4578, "RA_OF_ASC_NODE": 100.5901, "ARG_OF_PERICENTER": 246.0071, "MEAN_ANOMALY": 112.4163, "EPHEMERIS_TYPE": 0, "CLASSIFICATION_TYPE": "U", "NORAD_CAT_ID": 29853, "ELEMENT_SET_NO": 999, "REV_AT_EPOCH": 95551, "BSTAR": 0.0030487905, "MEAN_MOTION_DOT": 4.429e-05, "MEAN_MOTION_DDOT": 0}, "tle": {"line1": "1 29853U 99025EX  25338.27236747  .00004429  00000+0  30488-2 0  9994", "line2": "2 29853  98.4578 100.5901 0161016 246.0071 112.4163 13.93741438955517"}}, "geometry": {"type": "Point", "coordinates": [16.008509028014824, 81.50336273333103]}}, {"type": "Feature", "properties": {"norad_id": 29854, "name": "FENGYUN 1C DEB", "group": "fengyun-1c-debris", "lat": -71.52501585226459, "lon": 168.18811606640352, "alt_km": 1049.0334846184887, "timestamp": "2025-12-04T13:52:00.714464+00:00", "meta": {"OBJECT_NAME": "FENGYUN 1C DEB", "OBJECT_ID": "1999-025EY", "EPOCH": "2025-12-03T09:00:14.001984", "MEAN_MOTION": 13.83332644, "ECCENTRICITY": 0.0147549, "INCLINATION": 98.9274, "RA_OF_ASC_NODE": 138.983, "ARG_OF_PERICENTER": 75.9858, "MEAN_ANOMALY": 345.4029, "EPHEMERIS_TYPE": 0, "CLASSIFICATION_TYPE": "U", "NORAD_CAT_ID": 29854, "ELEMENT_SET_NO": 999, "REV_AT_EPOCH": 95214, "BSTAR": 0.00034486, "MEAN_MOTION_DOT": 3.72e-06, "MEAN_MOTION_DDOT": 0}, "tle": {"line1": "1 29854U 99025EY  25337.37516206  .00000372  00000+0  34486-3 0  9992", "line2": "2 29854  98.9274 138.9830 0147549  75.9858 345.4029 13.83332644952148"}}, "geometry": {"type": "Point", "coordinates": [168.18811606640352, -71.52501585226459]}}, {"type": "Feature", "properties": {"norad_id": 29855, "name": "FENGYUN 1C DEB", "group": "fengyun-1c-debris", "lat": -79.18768075614867, "lon": -30.017554086801205, "alt_km": 1013.4692678365764, "timestamp": "2025-12-04T13:52:00.714474+00:00", "meta": {"OBJECT_NAME": "FENGYUN 1C DEB", "OBJECT_ID": "1999-025EZ", "EPOCH": "2025-12-02T19:41:00.225600", "MEAN_MOTION": 14.01465354, "ECCENTRICITY": 0.018395, "INCLINATION": 98.1807, "RA_OF_ASC_NODE": 279.5368, "ARG_OF_PERICENTER": 74.0642, "MEAN_ANOMALY": 341.1809, "EPHEMERIS_TYPE": 0, "CLASSIFICATION_TYPE": "U", "NORAD_CAT_ID": 29855, "ELEMENT_SET_NO": 999, "REV_AT_EPOCH": 95573, "BSTAR": 0.002481467, "MEAN_MOTION_DOT": 4.31e-05, "MEAN_MOTION_DDOT": 0}, "tle": {"line1": "1 29855U 99025EZ  25336.82014150  .00004310  00000+0  24815-2 0  9993", "line2": "2 29855  98.1807 279.5368 0183950  74.0642 341.1809 14.01465354955731"}}, "geometry": {"type": "Point", "coordinates": [-30.017554086801205, -79.18768075614867]}}, {"type": "Feature", "properties": {"norad_id": 29856, "name": "FENGYUN 1C DEB", "group": "fengyun-1c-debris", "lat": -80.42886955373415, "lon": -172.78910619042404, "alt_km": 634.9708694889805, "timestamp": "2025-12-04T13:52:00.714484+00:00", "meta": {"OBJECT_NAME": "FENGYUN 1C DEB", "OBJECT_ID": "1999-025FA", "EPOCH": "2025-12-04T06:15:47.566944", "MEAN_MOTION": 14.47416171, "ECCENTRICITY": 0.0263285, "INCLINATION": 98.6896, "RA_OF_ASC_NODE": 71.9778, "ARG_OF_PERICENTER": 323.5587, "MEAN_ANOMALY": 95.0068, "EPHEMERIS_TYPE": 0, "CLASSIFICATION_TYPE": "U", "NORAD_CAT_ID": 29856, "ELEMENT_SET_NO": 999, "REV_AT_EPOCH": 96252, "BSTAR": 0.0051594274, "MEAN_MOTION_DOT": 0.00029359, "MEAN_MOTION_DDOT": 0}, "tle": {"line1": "1 29856U 99025FA  25338.26096721  .00029359  00000+0  51594-2 0  9992", "line2": "2 29856  98.6896  71.9778 0263285 323.5587  95.0068 14.47416171962524"}}, "geometry": {"type": "Point", "coordinates": [-172.78910619042404, -80.42886955373415]}}, {"type": "Feature", "properties": {"norad_id": 29857, "name": "FENGYUN 1C DEB", "group": "fengyun-1c-debris", "lat": -18.07305964712464, "lon": 164.00196448562482, "alt_km": 1027.9749742164495, "timestamp": "2025-12-04T13:52:00.714494+00:00", "meta": {"OBJECT_NAME": "FENGYUN 1C DEB", "OBJECT_ID": "1999-025FB", "EPOCH": "2025-12-03T00:24:03.975552", "MEAN_MOTION": 13.81815746, "ECCENTRICITY": 0.01930395, "INCLINATION": 98.423, "RA_OF_ASC_NODE": 345.3779, "ARG_OF_PERICENTER": 321.0116, "MEAN_ANOMALY": 37.7254, "EPHEMERIS_TYPE": 0, "CLASSIFICATION_TYPE": "U", "NORAD_CAT_ID": 29857, "ELEMENT_SET_NO": 999, "REV_AT_EPOCH": 94641, "BSTAR": 0.0022431403, "MEAN_MOTION_DOT": 2.73e-05, "MEAN_MOTION_DDOT": 0}, "tle": {"line1": "1 29857U 99025FB  25337.01671268  .00002730  00000+0  22431-2 0  9992", "line2": "2 29857  98.4230 345.3779 0193039 321.0116  37.7254 13.81815746946412"}}, "geometry": {"type": "Point", "coordinates": [164.00196448562482, -18.07305964712464]}}, {"type": "Feature", "properties": {"norad_id": 29858, "name": "FENGYUN 1C DEB", "group": "fengyun-1c-debris", "lat": -42.292937088416, "lon": -108.04625887197312, "alt_km": 1083.8972181061963, "timestamp": "2025-12-04T13:52:00.714504+00:00", "meta": {"OBJECT_NAME": "FENGYUN 1C DEB", "OBJECT_ID": "1999-025FC", "EPOCH": "2025-12-04T06:05:46.150368", "MEAN_MOTION": 13.77756551, "ECCENTRICITY": 0.01993007, "INCLINATION": 99.2134, "RA_OF_ASC_NODE": 80.1302, "ARG_OF_PERICENTER": 86.8848, "MEAN_ANOMALY": 329.3591, "EPHEMERIS_TYPE": 0, "CLASSIFICATION_TYPE": "U", "NORAD_CAT_ID": 29858, "ELEMENT_SET_NO": 999, "REV_AT_EPOCH": 94437, "BSTAR": 0.001956649, "MEAN_MOTION_DOT": 2.225e-05, "MEAN_MOTION_DDOT": 0}, "tle": {"line1": "1 29858U 99025FC  25338.25400637  .00002225  00000+0  19566-2 0  9994", "line2": "2 29858  99.2134  80.1302 0199300  86.8848 329.3591 13.77756551944376"}}, "geometry": {"type": "Point", "coordinates": [-108.04625887197312, -42.292937088416]}}, {"type": "Feature", "properties": {"norad_id": 29859, "name": "FENGYUN 1C DEB", "group": "fengyun-1c-debris", "lat": -68.2119645434476, "lon": -27.197246012278356, "alt_km": 781.7159036580533, "timestamp": "2025-12-04T13:52:00.714514+00:00", "meta": {"OBJECT_NAME": "FENGYUN 1C DEB", "OBJECT_ID": "1999-025FD", "EPOCH": "2025-12-03T12:10:34.845600", "MEAN_MOTION": 13.73936088, "ECCENTRICITY": 0.02956284, "INCLINATION": 98.3348, "RA_OF_ASC_NODE": 173.3817, "ARG_OF_PERICENTER": 237.9169, "MEAN_ANOMALY": 119.2968, "EPHEMERIS_TYPE": 0, "CLASSIFICATION_TYPE": "U", "NORAD_CAT_ID": 29859, "ELEMENT_SET_NO": 999, "REV_AT_EPOCH": 93853, "BSTAR": 0.0036431322, "MEAN_MOTION_DOT": 4.649e-05, "MEAN_MOTION_DDOT": 0}, "tle": {"line1": "1 29859U 99025FD  25337.50734775  .00004649  00000+0  36431-2 0  9997", "line2": "2 29859  98.3348 173.3817 0295628 237.9169 119.2968 13.73936088938531"}}, "geometry": {"type": "Point", "coordinates": [-27.197246012278356, -68.2119645434476]}}, {"type": "Feature", "properties": {"norad_id": 29860, "name": "FENGYUN 1C DEB", "group": "fengyun-1c-debris", "lat": -72.95097936609002, "lon": 42.878520980995134, "alt_km": 950.3593774986111, "timestamp": "2025-12-04T13:52:00.714524+00:00", "meta": {"OBJECT_NAME": "FENGYUN 1C DEB", "OBJECT_ID": "1999-025FE", "EPOCH": "2025-12-03T01:54:18.158976", "MEAN_MOTION": 13.7744939, "ECCENTRICITY": 0.02211611, "INCLINATION": 98.6181, "RA_OF_ASC_NODE": 11.8801, "ARG_OF_PERICENTER": 9.5051, "MEAN_ANOMALY": 51.4532, "EPHEMERIS_TYPE": 0, "CLASSIFICATION_TYPE": "U", "NORAD_CAT_ID": 29860, "ELEMENT_SET_NO": 999, "REV_AT_EPOCH": 94006, "BSTAR": 0.0029465578, "MEAN_MOTION_DOT": 3.474e-05, "MEAN_MOTION_DDOT": 0}, "tle": {"line1": "1 29860U 99025FE  25337.07937684  .00003474  00000+0  29466-2 0  9990", "line2": "2 29860  98.6181  11.8801 0221161   9.5051  51.4532 13.77449390940068"}}, "geometry": {"type": "Point", "coordinates": [42.878520980995134, -72.95097936609002]}}, {"type": "Feature", "properties": {"norad_id": 29865, "name": "FENGYUN 1C DEB", "group": "fengyun-1c-debris", "lat": -0.39750406093906904, "lon": 68.3328438886898, "alt_km": 545.5154212642501, "timestamp": "2025-12-04T13:52:00.714535+00:00", "meta": {"OBJECT_NAME": "FENGYUN 1C DEB", "OBJECT_ID": "1999-025FK", "EPOCH": "2025-12-04T07:07:17.384736", "MEAN_MOTION": 14.82445779, "ECCENTRICITY": 0.01159848, "INCLINATION": 98.9203, "RA_OF_ASC_NODE": 248.0821, "ARG_OF_PERICENTER": 168.0367, "MEAN_ANOMALY": 312.8836, "EPHEMERIS_TYPE": 0, "CLASSIFICATION_TYPE": "U", "NORAD_CAT_ID": 29865, "ELEMENT_SET_NO": 999, "REV_AT_EPOCH": 633, "BSTAR": 0.0014853027, "MEAN_MOTION_DOT": 0.00013348, "MEAN_MOTION_DDOT": 0}, "tle": {"line1": "1 29865U 99025FK  25338.29672899  .00013348  00000+0  14853-2 0  9999", "line2": "2 29865  98.9203 248.0821 0115984 168.0367 312.8836 14.82445779  6331"}}, "geometry": {"type": "Point", "coordinates": [68.3328438886898, -0.39750406093906904]}}, {"type": "Feature", "properties": {"norad_id": 29866, "name": "FENGYUN 1C DEB", "group": "fengyun-1c-debris", "lat": 52.96558495476062, "lon": 155.29211010961512, "alt_km": 729.5860488174276, "timestamp": "2025-12-04T13:52:00.714545+00:00", "meta": {"OBJECT_NAME": "FENGYUN 1C DEB", "OBJECT_ID": "1999-025FL", "EPOCH": "2025-12-03T22:46:03.065376", "MEAN_MOTION": 14.64157542, "ECCENTRICITY": 0.01940945, "INCLINATION": 98.036, "RA_OF_ASC_NODE": 323.8858, "ARG_OF_PERICENTER": 242.7769, "MEAN_ANOMALY": 171.2715, "EPHEMERIS_TYPE": 0, "CLASSIFICATION_TYPE": "U", "NORAD_CAT_ID": 29866, "ELEMENT_SET_NO": 999, "REV_AT_EPOCH": 198, "BSTAR": 0.00064807805, "MEAN_MOTION_DOT": 4.432e-05, "MEAN_MOTION_DDOT": 0}, "tle": {"line1": "1 29866U 99025FL  25337.94864659  .00004432  00000+0  64808-3 0  9998", "line2": "2 29866  98.0360 323.8858 0194094 242.7769 171.2715 14.64157542  1981"}}, "geometry": {"type": "Point", "coordinates": [155.29211010961512, 52.96558495476062]}}]}